H1 CPF 01  gfz 2021 06 06 00  6571 terrasarx 
H2 0702601  6201 31698    2021 06 06 00 59 42 2021 06 11 00 00 42   120 1 1  0 0 0
H9
10 0 59372  82782.000000  0    1573164.939  -2676696.963  -6156280.686
10 0 59372  82902.000000  0    1697330.574  -3470658.965  -5710552.539
10 0 59372  83022.000000  0    1778658.734  -4206191.296  -5165021.664
10 0 59372  83142.000000  0    1816849.108  -4869706.953  -4529134.610
10 0 59372  83262.000000  0    1812573.666  -5448842.004  -3813931.977
10 0 59372  83382.000000  0    1767445.566  -5932694.611  -3031866.955
10 0 59372  83502.000000  0    1683966.922  -6312041.140  -2196595.013
10 0 59372  83622.000000  0    1565457.723  -6579523.219  -1322737.835
10 0 59372  83742.000000  0    1415966.619  -6729801.554   -425627.009
10 0 59372  83862.000000  0    1240165.231  -6759672.627    478970.259
10 0 59372  83982.000000  0    1043229.369  -6668141.556   1375134.875
10 0 59372  84102.000000  0     830708.449  -6456452.987   2247085.145
10 0 59372  84222.000000  0     608388.726  -6128074.454   3079464.894
10 0 59372  84342.000000  0     382151.080  -5688634.240   3857621.463
10 0 59372  84462.000000  0     157828.704  -5145817.421   4567867.831
10 0 59372  84582.000000  0     -58931.371  -4509222.597   5197725.795
10 0 59372  84702.000000  0    -262800.047  -3790181.937   5736144.561
10 0 59372  84822.000000  0    -448887.615  -3001549.614   6173692.118
10 0 59372  84942.000000  0    -612853.185  -2157462.892   6502714.048
10 0 59372  85062.000000  0    -750999.709  -1273084.638   6717459.790
10 0 59372  85182.000000  0    -860352.799   -364329.321   6814178.428
10 0 59372  85302.000000  0    -938722.580    552424.561   6791181.051
10 0 59372  85422.000000  0    -984746.677   1460629.611   6648868.281
10 0 59372  85542.000000  0    -997913.466   2343867.569   6389723.543
10 0 59372  85662.000000  0    -978566.130   3186145.743   6018272.547
10 0 59372  85782.000000  0    -927887.639   3972187.975   5541009.191
10 0 59372  85902.000000  0    -847865.900   4687714.816   4966287.543
10 0 59372  86022.000000  0    -741240.770   5319709.145   4304182.315
10 0 59372  86142.000000  0    -611432.966   5856661.490   3566315.707
10 0 59372  86262.000000  0    -462456.793   6288787.581   2765657.794
10 0 59372  86382.000000  0    -298819.532   6608220.388   1916298.749
10 0 59373    102.000000  0    -125406.334   6809161.950   1033194.842
10 0 59373    222.000000  0      52644.175   6887994.749    131899.360
10 0 59373    342.000000  0     230070.535   6843351.029   -771719.057
10 0 59373    462.000000  0     401622.636   6676136.041  -1661765.861
10 0 59373    582.000000  0     562193.679   6389503.783  -2522608.472
10 0 59373    702.000000  0     706948.118   5988789.271  -3339156.329
10 0 59373    822.000000  0     831443.216   5481398.965  -4097128.623
10 0 59373    942.000000  0     931740.677   4876661.635  -4783304.055
10 0 59373   1062.000000  0    1004505.881   4185644.345  -5385747.405
10 0 59373   1182.000000  0    1047092.424   3420939.209  -5894009.425
10 0 59373   1302.000000  0    1057609.865   2596425.777  -6299298.665
10 0 59373   1422.000000  0    1034974.241   1727013.866  -6594621.619
10 0 59373   1542.000000  0     978940.272    828374.222  -6774892.015
10 0 59373   1662.000000  0     890115.034    -83341.000  -6837009.970
10 0 59373   1782.000000  0     769953.178   -991783.627  -6779909.121
10 0 59373   1902.000000  0     620733.068  -1880695.637  -6604571.227
10 0 59373   2022.000000  0     445515.459  -2734191.250  -6314010.934
10 0 59373   2142.000000  0     248084.102  -3537035.562  -5913232.131
10 0 59373   2262.000000  0      32868.856  -4274914.928  -5409149.956
10 0 59373   2382.000000  0    -195146.076  -4934692.448  -4810482.163
10 0 59373   2502.000000  0    -430529.002  -5504646.813  -4127610.150
10 0 59373   2622.000000  0    -667520.569  -5974689.344  -3372409.166
10 0 59373   2742.000000  0    -900163.952  -6336553.474  -2558049.488
10 0 59373   2862.000000  0   -1122442.945  -6583952.841  -1698771.846
10 0 59373   2982.000000  0   -1328424.595  -6712703.762   -809638.724
10 0 59373   3102.000000  0   -1512402.747  -6720806.705     93733.310
10 0 59373   3222.000000  0   -1669039.160  -6608484.627    995454.079
10 0 59373   3342.000000  0   -1793498.775  -6378177.005   1879647.470
10 0 59373   3462.000000  0   -1881575.079  -6034488.891   2730740.309
10 0 59373   3582.000000  0   -1929802.021  -5584095.643   3533745.384
10 0 59373   3702.000000  0   -1935549.527  -5035606.513   4274531.715
10 0 59373   3822.000000  0   -1897100.287  -4399391.630   4940076.294
10 0 59373   3942.000000  0   -1813707.373  -3687377.539   5518693.804
10 0 59373   4062.000000  0   -1685630.482  -2912813.726   6000240.689
10 0 59373   4182.000000  0   -1514149.065  -2090017.611   6376287.385
10 0 59373   4302.000000  0   -1301553.650  -1234105.571   6640259.465
10 0 59373   4422.000000  0   -1051116.576   -360711.995   6787547.101
10 0 59373   4542.000000  0    -767042.346    514297.432   6815579.604
10 0 59373   4662.000000  0    -454397.158   1375112.944   6723868.010
10 0 59373   4782.000000  0    -119018.392   2206266.063   6514013.385
10 0 59373   4902.000000  0     232594.089   2992907.361   6189680.365
10 0 59373   5022.000000  0     593402.491   3721072.132   5756537.174
10 0 59373   5142.000000  0     955969.748   4377931.448   5222162.239
10 0 59373   5262.000000  0    1312610.562   4952023.248   4595917.610
10 0 59373   5382.000000  0    1655551.686   5433459.536   3888789.695
10 0 59373   5502.000000  0    1977098.320   5814104.686   3113202.199
10 0 59373   5622.000000  0    2269804.797   6087724.093   2282798.820
10 0 59373   5742.000000  0    2526641.846   6250094.716   1412199.406
10 0 59373   5862.000000  0    2741159.088   6299075.102    516736.165
10 0 59373   5982.000000  0    2907636.152   6234632.524   -387823.734
10 0 59373   6102.000000  0    3021220.862   6058828.987  -1285563.686
10 0 59373   6222.000000  0    3078050.358   5775764.700  -2160705.813
10 0 59373   6342.000000  0    3075351.864   5391481.668  -2997895.302
10 0 59373   6462.000000  0    3011520.724   4913828.718  -3782475.464
10 0 59373   6582.000000  0    2886173.080   4352291.888  -4500745.649
10 0 59373   6702.000000  0    2700172.960   3717797.147  -5140197.746
10 0 59373   6822.000000  0    2455634.034   3022489.691  -5689727.676
10 0 59373   6942.000000  0    2155896.997   2279495.172  -6139819.535
10 0 59373   7062.000000  0    1805482.021   1502667.913  -6482699.238
10 0 59373   7182.000000  0    1410019.370    706332.463  -6712456.596
10 0 59373   7302.000000  0     976159.046    -94977.319  -6825137.642
10 0 59373   7422.000000  0     511458.895   -886778.987  -6818805.750
10 0 59373   7542.000000  0      24254.972  -1654897.246  -6693569.523
10 0 59373   7662.000000  0    -476483.572  -2385710.032  -6451580.844
10 0 59373   7782.000000  0    -981315.384  -3066385.230  -6097003.736
10 0 59373   7902.000000  0   -1480500.415  -3685103.838  -5635949.618
10 0 59373   8022.000000  0   -1964183.108  -4231264.831  -5076382.606
10 0 59373   8142.000000  0   -2422583.955  -4695671.242  -4427994.333
10 0 59373   8262.000000  0   -2846196.060  -5070692.349  -3702046.586
10 0 59373   8382.000000  0   -3225981.630  -5350397.289  -2911184.273
10 0 59373   8502.000000  0   -3553564.666  -5530658.267  -2069221.615
10 0 59373   8622.000000  0   -3821416.010  -5609220.233  -1190903.519
10 0 59373   8742.000000  0   -4023025.264  -5585734.179   -291645.526
10 0 59373   8862.000000  0   -4153054.368  -5461752.242    612742.152
10 0 59373   8982.000000  0   -4207469.236  -5240684.393   1506340.462
10 0 59373   9102.000000  0   -4183645.551  -4927716.717   2373411.370
10 0 59373   9222.000000  0   -4080445.367  -4529693.371   3198683.701
10 0 59373   9342.000000  0   -3898263.616  -4054966.593   3967629.099
10 0 59373   9462.000000  0   -3639042.921  -3513217.960   4666723.209
10 0 59373   9582.000000  0   -3306256.239  -2915254.845   5283685.247
10 0 59373   9702.000000  0   -2904859.147  -2272789.342   5807691.647
10 0 59373   9822.000000  0   -2441212.777  -1598205.051   6229562.327
10 0 59373   9942.000000  0   -1922979.484   -904314.969   6541917.675
10 0 59373  10062.000000  0   -1358991.436   -204114.291   6739302.227
10 0 59373  10182.000000  0    -759097.163    489463.083   6818271.533
10 0 59373  10302.000000  0    -133990.015   1163781.895   6777448.714
10 0 59373  10422.000000  0     504982.155   1806735.351   6617547.453
10 0 59373  10542.000000  0    1146022.685   2406962.571   6341360.167
10 0 59373  10662.000000  0    1777103.066   2954049.067   5953711.624
10 0 59373  10782.000000  0    2386187.851   3438708.927   5461380.512
10 0 59373  10902.000000  0    2961465.327   3852946.628   4872987.803
10 0 59373  11022.000000  0    3491579.544   4190193.561   4198850.322
10 0 59373  11142.000000  0    3965856.137   4445416.049   3450804.644
10 0 59373  11262.000000  0    4374522.771   4615196.770   2642003.534
10 0 59373  11382.000000  0    4708915.639   4697781.591   1786680.958
10 0 59373  11502.000000  0    4961663.839   4693093.808    899898.737
10 0 59373  11622.000000  0    5126854.002   4602714.231     -2725.249
10 0 59373  11742.000000  0    5200163.883   4429826.135   -905302.184
10 0 59373  11862.000000  0    5178963.382   4179127.493  -1791960.377
10 0 59373  11982.000000  0    5062382.587   3856713.345  -2647131.673
10 0 59373  12102.000000  0    4851344.202   3469931.128  -3455830.420
10 0 59373  12222.000000  0    4548559.453   3027213.950  -4203918.801
10 0 59373  12342.000000  0    4158488.339   2537895.380  -4878353.709
10 0 59373  12462.000000  0    3687266.515   2012009.823  -5467409.343
10 0 59373  12582.000000  0    3142601.048   1460085.058  -5960873.013
10 0 59373  12702.000000  0    2533636.973    892931.455  -6350212.169
10 0 59373  12822.000000  0    1870798.623    321431.738  -6628709.892
99
